OBJECT_NAME,OBJECT_ID,EPOCH,MEAN_MOTION,ECCENTRICITY,INCLINATION,RA_OF_ASC_NODE,ARG_OF_PERICENTER,MEAN_ANOMALY,EPHEMERIS_TYPE,CLASSIFICATION_TYPE,NORAD_CAT_ID,ELEMENT_SET_NO,REV_AT_EPOCH,BSTAR,MEAN_MOTION_DOT,MEAN_MOTION_DDOT
QIANFAN-147,2026-108C,2026-06-05T22:51:12.303072,14.17033036,.0015513,89.0119,23.4682,146.1608,214.0573,0,U,69106,999,275,.15109E-3,.318E-5,0
QIANFAN-148,2026-108D,2026-06-05T22:42:52.532640,14.17402156,.0016009,89.0120,23.4676,151.1227,209.0851,0,U,69107,999,275,.15039E-3,.319E-5,0
QIANFAN-149,2026-108E,2026-06-05T22:39:21.884256,14.17856749,.0015657,89.0122,23.4677,150.3784,209.8295,0,U,69108,999,275,.1566E-3,.334E-5,0
QIANFAN-150,2026-108F,2026-06-05T22:27:47.927232,14.18305196,.0015692,89.0123,23.4666,152.1166,208.0868,0,U,69109,999,275,.15037E-3,.324E-5,0
QIANFAN-151,2026-108G,2026-06-05T22:20:14.944992,14.18800853,.0015809,89.0122,23.4657,150.6762,209.5318,0,U,69110,999,275,.15914E-3,.345E-5,0
QIANFAN-152,2026-108H,2026-06-05T22:14:01.195008,14.19418130,.0015026,89.0121,23.4648,150.5849,209.6190,0,U,69111,999,275,.15155E-3,.333E-5,0
QIANFAN-154,2026-108K,2026-06-05T21:57:48.445056,14.20189437,.0015893,89.0123,23.4635,148.4928,211.7217,0,U,69113,999,275,.15597E-3,.348E-5,0
QIANFAN-155,2026-108L,2026-06-05T22:01:17.361984,14.19534828,.0016603,89.0123,23.4639,148.8346,211.3832,0,U,69114,999,275,.16278E-3,.358E-5,0
QIANFAN-156,2026-108M,2026-06-05T21:51:48.964032,14.20957248,.0016238,89.0126,23.4634,150.0777,210.1345,0,U,69115,999,275,.15376E-3,.348E-5,0
QIANFAN-157,2026-108N,2026-06-05T22:59:18.945024,14.24907858,.0016541,89.0123,23.4514,154.7668,205.4337,0,U,69116,999,276,.16147E-3,.392E-5,0
QIANFAN-158,2026-108P,2026-06-05T21:43:33.998304,14.21846659,.0016167,89.0122,23.4618,151.4276,208.7804,0,U,69117,999,275,.15438E-3,.355E-5,0
QIANFAN-159,2026-108Q,2026-06-05T21:38:15.692064,14.22293000,.0015866,89.0121,23.4611,151.2824,208.9244,0,U,69118,999,275,.15745E-3,.364E-5,0
QIANFAN-161,2026-108S,2026-06-05T21:29:28.501728,14.23188325,.0015597,89.0123,23.4605,151.8475,208.3564,0,U,69120,999,275,.15342E-3,.361E-5,0
QIANFAN-162,2026-108T,2026-06-05T21:26:52.974816,14.23623750,.0015433,89.0122,23.4602,153.0334,207.1663,0,U,69121,999,275,.15513E-3,.368E-5,0
SMILE,2026-109A,2026-05-24T15:40:35.120928,14.57062785,.00091232,70.0007,229.2745,259.5159,100.4951,0,U,69123,999,80,-.42378883E-3,-.1976E-4,0
STARLINK-37715,2026-110C,2026-06-05T13:21:26.035776,15.80855594,.00018077,97.2837,352.7856,139.4930,220.6473,0,U,69126,999,380,.70625637E-3,.137545E-2,0
STARLINK-37533,2026-110G,2026-06-05T20:51:48.021984,15.80753113,.0001606,97.2839,353.1262,86.5092,273.6360,0,U,69130,999,385,-.282E-3,-.53675E-3,0
STARLINK-37530,2026-110H,2026-06-05T20:50:42.368352,15.80958616,.0001605,97.2839,353.1276,85.1519,274.9933,0,U,69131,999,385,.14099E-2,.280611E-2,0
STARLINK-37361,2026-110L,2026-06-05T17:45:08.850528,15.80898683,.00013057,97.2844,352.9962,72.2244,287.9167,0,U,69134,999,383,.91664801E-3,.179782E-2,0
