QIANFAN-147             
1 69106U 26108C   26156.95222573  .00000318  00000+0  15109-3 0  9994
2 69106  89.0119  23.4682 0015513 146.1608 214.0573 14.17033036  2752
QIANFAN-148             
1 69107U 26108D   26156.94644136  .00000319  00000+0  15039-3 0  9990
2 69107  89.0120  23.4676 0016009 151.1227 209.0851 14.17402156  2758
QIANFAN-149             
1 69108U 26108E   26156.94400329  .00000334  00000+0  15660-3 0  9992
2 69108  89.0122  23.4677 0015656 150.3784 209.8295 14.17856750  2751
QIANFAN-150             
1 69109U 26108F   26156.93597138  .00000324  00000+0  15037-3 0  9994
2 69109  89.0123  23.4666 0015692 152.1166 208.0868 14.18305196  2756
QIANFAN-151             
1 69110U 26108G   26156.93072854  .00000345  00000+0  15914-3 0  9996
2 69110  89.0122  23.4657 0015808 150.6762 209.5318 14.18800853  2757
QIANFAN-152             
1 69111U 26108H   26156.92640273  .00000333  00000+0  15155-3 0  9996
2 69111  89.0121  23.4648 0015026 150.5849 209.6190 14.19418130  2757
QIANFAN-154             
1 69113U 26108K   26156.91514404  .00000348  00000+0  15597-3 0  9999
2 69113  89.0123  23.4635 0015892 148.4928 211.7217 14.20189437  2753
QIANFAN-155             
1 69114U 26108L   26156.91756207  .00000358  00000+0  16278-3 0  9997
2 69114  89.0123  23.4639 0016602 148.8346 211.3832 14.19534828  2751
QIANFAN-156             
1 69115U 26108M   26156.91098338  .00000348  00000+0  15376-3 0  9999
2 69115  89.0126  23.4634 0016237 150.0777 210.1345 14.20957248  2750
QIANFAN-157             
1 69116U 26108N   26156.95785816  .00000392  00000+0  16147-3 0  9994
2 69116  89.0123  23.4514 0016540 154.7668 205.4337 14.24907858  2767
QIANFAN-158             
1 69117U 26108P   26156.90525461  .00000355  00000+0  15438-3 0  9999
2 69117  89.0122  23.4618 0016167 151.4276 208.7804 14.21846659  2758
QIANFAN-159             
1 69118U 26108Q   26156.90157052  .00000364  00000+0  15745-3 0  9998
2 69118  89.0121  23.4611 0015866 151.2824 208.9244 14.22293000  2750
QIANFAN-161             
1 69120U 26108S   26156.89546878  .00000361  00000+0  15342-3 0  9997
2 69120  89.0123  23.4605 0015596 151.8475 208.3564 14.23188325  2759
QIANFAN-162             
1 69121U 26108T   26156.89366870  .00000368  00000+0  15513-3 0  9997
2 69121  89.0122  23.4602 0015432 153.0334 207.1663 14.23623750  2756
SMILE                   
1 69123U 26109A   26144.65318427 -.00001976  00000+0 -42379-3 0  9994
2 69123  70.0007 229.2745 0009123 259.5159 100.4951 14.57062785   802
STARLINK-37715          
1 69126U 26110C   26156.55655134  .00137545  00000+0  70626-3 0  9996
2 69126  97.2837 352.7856 0001807 139.4930 220.6473 15.80855594  3808
STARLINK-37533          
1 69130U 26110G   26156.86930582 -.00053675  00000+0 -28200-3 0  9992
2 69130  97.2839 353.1262 0001606  86.5092 273.6360 15.80753113  3851
STARLINK-37530          
1 69131U 26110H   26156.86854593  .00280611  00000+0  14099-2 0  9990
2 69131  97.2839 353.1276 0001605  85.1519 274.9933 15.80958616  3850
STARLINK-37361          
1 69134U 26110L   26156.73968577  .00179782  00000+0  91665-3 0  9998
2 69134  97.2844 352.9962 0001305  72.2244 287.9167 15.80898683  3835
